[{"OBJECT_NAME":"YAOGAN-28","OBJECT_ID":"2015-064A","EPOCH":"2026-03-09T23:07:10.370208","MEAN_MOTION":15.26008,"ECCENTRICITY":0.00111911,"INCLINATION":97.2901,"RA_OF_ASC_NODE":209.4389,"ARG_OF_PERICENTER":175.4532,"MEAN_ANOMALY":184.6811,"EPHEMERIS_TYPE":0,"CLASSIFICATION_TYPE":"U","NORAD_CAT_ID":41026,"ELEMENT_SET_NO":999,"REV_AT_EPOCH":57554,"BSTAR":0.00039691695,"MEAN_MOTION_DOT":0.00010159,"MEAN_MOTION_DDOT":0},{"OBJECT_NAME":"STARLINK-31742","OBJECT_ID":"2024-071R","EPOCH":"2026-03-09T03:18:19.518624","MEAN_MOTION":15.27533339,"ECCENTRICITY":8.466e-5,"INCLINATION":43.0036,"RA_OF_ASC_NODE":342.6484,"ARG_OF_PERICENTER":259.5431,"MEAN_ANOMALY":100.5326,"EPHEMERIS_TYPE":0,"CLASSIFICATION_TYPE":"U","NORAD_CAT_ID":59499,"ELEMENT_SET_NO":999,"REV_AT_EPOCH":10812,"BSTAR":1.7280895e-5,"MEAN_MOTION_DOT":2.13e-6,"MEAN_MOTION_DDOT":0}]
